{"type": "FeatureCollection", "features": [ {"type": "Feature", "properties": {"norad_id": 37216, "name": "COSMO-SKYMED 4", "group": "resource", "lat": 56.496002123146646, "lon": 147.12277108759622, "alt_km": 616.2611862815274, "timestamp": "2025-12-03T17:47:50.368894+00:00", "meta": {"OBJECT_NAME": "COSMO-SKYMED 4", "OBJECT_ID": "2010-060A", "EPOCH": "2025-12-03T12:40:43.805856", "MEAN_MOTION": 14.82149956, "ECCENTRICITY": 0.0001403, "INCLINATION": 97.8807, "RA_OF_ASC_NODE": 158.9904, "ARG_OF_PERICENTER": 83.5902, "MEAN_ANOMALY": 276.5471, "EPHEMERIS_TYPE": 0, "CLASSIFICATION_TYPE": "U", "NORAD_CAT_ID": 37216, "ELEMENT_SET_NO": 999, "REV_AT_EPOCH": 81558, "BSTAR": 0.00011545, "MEAN_MOTION_DOT": 8.67e-06, "MEAN_MOTION_DDOT": 0}, "tle": {"line1": "1 37216U 10060A   25337.52828479  .00000867  00000+0  11545-3 0  9990", "line2": "2 37216  97.8807 158.9904 0001403  83.5902 276.5471 14.82149956815589"}}, "geometry": {"type": "Point", "coordinates": [147.12277108759622, 56.496002123146646]}}, {"type": "Feature", "properties": {"norad_id": 37387, "name": "RESOURCESAT-2", "group": "resource", "lat": -1.0589041520199862, "lon": -138.83046869448722, "alt_km": 825.1116324288987, "timestamp": "2025-12-03T17:47:50.368905+00:00", "meta": {"OBJECT_NAME": "RESOURCESAT-2", "OBJECT_ID": "2011-015A", "EPOCH": "2025-12-03T11:52:54.717600", "MEAN_MOTION": 14.21591115, "ECCENTRICITY": 0.0006782, "INCLINATION": 98.789, "RA_OF_ASC_NODE": 41.088, "ARG_OF_PERICENTER": 66.3626, "MEAN_ANOMALY": 293.8263, "EPHEMERIS_TYPE": 0, "CLASSIFICATION_TYPE": "U", "NORAD_CAT_ID": 37387, "ELEMENT_SET_NO": 999, "REV_AT_EPOCH": 75837, "BSTAR": 0.00013565, "MEAN_MOTION_DOT": 2.53e-06, "MEAN_MOTION_DDOT": 0}, "tle": {"line1": "1 37387U 11015A   25337.49507775  .00000253  00000+0  13565-3 0  9992", "line2": "2 37387  98.7890  41.0880 0006782  66.3626 293.8263 14.21591115758377"}}, "geometry": {"type": "Point", "coordinates": [-138.83046869448722, -1.0589041520199862]}}, {"type": "Feature", "properties": {"norad_id": 37781, "name": "HAIYANG-2A", "group": "resource", "lat": 8.066074385580894, "lon": 160.15081417237838, "alt_km": 969.4541979826245, "timestamp": "2025-12-03T17:47:50.368915+00:00", "meta": {"OBJECT_NAME": "HAIYANG-2A", "OBJECT_ID": "2011-043A", "EPOCH": "2025-12-03T13:29:03.612768", "MEAN_MOTION": 13.78834169, "ECCENTRICITY": 0.0001646, "INCLINATION": 99.3377, "RA_OF_ASC_NODE": 338.6378, "ARG_OF_PERICENTER": 96.5015, "MEAN_ANOMALY": 263.6324, "EPHEMERIS_TYPE": 0, "CLASSIFICATION_TYPE": "U", "NORAD_CAT_ID": 37781, "ELEMENT_SET_NO": 999, "REV_AT_EPOCH": 71972, "BSTAR": 5.398e-05, "MEAN_MOTION_DOT": 1.1e-07, "MEAN_MOTION_DDOT": 0}, "tle": {"line1": "1 37781U 11043A   25337.56184737  .00000011  00000+0  53980-4 0  9996", "line2": "2 37781  99.3377 338.6378 0001646  96.5015 263.6324 13.78834169719729"}}, "geometry": {"type": "Point", "coordinates": [160.15081417237838, 8.066074385580894]}}, {"type": "Feature", "properties": {"norad_id": 37791, "name": "RASAT", "group": "resource", "lat": -70.41337754073841, "lon": 90.61874018766723, "alt_km": 689.9894699212173, "timestamp": "2025-12-03T17:47:50.368926+00:00", "meta": {"OBJECT_NAME": "RASAT", "OBJECT_ID": "2011-044D", "EPOCH": "2025-12-03T13:29:54.358944", "MEAN_MOTION": 14.6788815, "ECCENTRICITY": 0.0021968, "INCLINATION": 98.0656, "RA_OF_ASC_NODE": 66.9564, "ARG_OF_PERICENTER": 92.6647, "MEAN_ANOMALY": 329.3748, "EPHEMERIS_TYPE": 0, "CLASSIFICATION_TYPE": "U", "NORAD_CAT_ID": 37791, "ELEMENT_SET_NO": 999, "REV_AT_EPOCH": 76448, "BSTAR": 0.00018552, "MEAN_MOTION_DOT": 1.015e-05, "MEAN_MOTION_DDOT": 0}, "tle": {"line1": "1 37791U 11044D   25337.56243471  .00001015  00000+0  18552-3 0  9999", "line2": "2 37791  98.0656  66.9564 0021968  92.6647 329.3748 14.67888150764482"}}, "geometry": {"type": "Point", "coordinates": [90.61874018766723, -70.41337754073841]}}, {"type": "Feature", "properties": {"norad_id": 37841, "name": "SRMSAT", "group": "resource", "lat": -9.252179834143627, "lon": 135.76280004465875, "alt_km": 857.0291492486476, "timestamp": "2025-12-03T17:47:50.368936+00:00", "meta": {"OBJECT_NAME": "SRMSAT", "OBJECT_ID": "2011-058D", "EPOCH": "2025-12-03T05:06:49.197024", "MEAN_MOTION": 14.11506204, "ECCENTRICITY": 0.0011731, "INCLINATION": 19.9698, "RA_OF_ASC_NODE": 165.6115, "ARG_OF_PERICENTER": 207.8469, "MEAN_ANOMALY": 312.6999, "EPHEMERIS_TYPE": 0, "CLASSIFICATION_TYPE": "U", "NORAD_CAT_ID": 37841, "ELEMENT_SET_NO": 999, "REV_AT_EPOCH": 73009, "BSTAR": 0.00012787, "MEAN_MOTION_DOT": 5.01e-06, "MEAN_MOTION_DDOT": 0}, "tle": {"line1": "1 37841U 11058D   25337.21306941  .00000501  00000+0  12787-3 0  9997", "line2": "2 37841  19.9698 165.6115 0011731 207.8469 312.6999 14.11506204730093"}}, "geometry": {"type": "Point", "coordinates": [135.76280004465875, -9.252179834143627]}}, {"type": "Feature", "properties": {"norad_id": 38012, "name": "PLEIADES 1A", "group": "resource", "lat": 24.966399621880928, "lon": 46.80696568357653, "alt_km": 696.5718444570311, "timestamp": "2025-12-03T17:47:50.368947+00:00", "meta": {"OBJECT_NAME": "PLEIADES 1A", "OBJECT_ID": "2011-076F", "EPOCH": "2025-12-03T11:40:23.265696", "MEAN_MOTION": 14.58546648, "ECCENTRICITY": 0.0001406, "INCLINATION": 98.1834, "RA_OF_ASC_NODE": 50.3974, "ARG_OF_PERICENTER": 81.1954, "MEAN_ANOMALY": 45.0933, "EPHEMERIS_TYPE": 0, "CLASSIFICATION_TYPE": "U", "NORAD_CAT_ID": 38012, "ELEMENT_SET_NO": 999, "REV_AT_EPOCH": 74346, "BSTAR": 0.00015427, "MEAN_MOTION_DOT": 6.72e-06, "MEAN_MOTION_DDOT": 0}, "tle": {"line1": "1 38012U 11076F   25337.48638039  .00000672  00000+0  15427-3 0  9996", "line2": "2 38012  98.1834  50.3974 0001406  81.1954  45.0933 14.58546648743465"}}, "geometry": {"type": "Point", "coordinates": [46.80696568357653, 24.966399621880928]}}, {"type": "Feature", "properties": {"norad_id": 38038, "name": "ZIYUAN 1-02C (ZY 1-02C)", "group": "resource", "lat": -56.91672601115774, "lon": -149.24457286366965, "alt_km": 770.8861758173343, "timestamp": "2025-12-03T17:47:50.368958+00:00", "meta": {"OBJECT_NAME": "ZIYUAN 1-02C (ZY 1-02C)", "OBJECT_ID": "2011-079A", "EPOCH": "2025-12-03T12:15:35.892576", "MEAN_MOTION": 14.37995212, "ECCENTRICITY": 0.0006784, "INCLINATION": 98.4346, "RA_OF_ASC_NODE": 43.6942, "ARG_OF_PERICENTER": 164.0408, "MEAN_ANOMALY": 319.9944, "EPHEMERIS_TYPE": 0, "CLASSIFICATION_TYPE": "U", "NORAD_CAT_ID": 38038, "ELEMENT_SET_NO": 999, "REV_AT_EPOCH": 73108, "BSTAR": 0.00027839, "MEAN_MOTION_DOT": 7.99e-06, "MEAN_MOTION_DDOT": 0}, "tle": {"line1": "1 38038U 11079A   25337.51083209  .00000799  00000+0  27839-3 0  9994", "line2": "2 38038  98.4346  43.6942 0006784 164.0408 319.9944 14.37995212731085"}}, "geometry": {"type": "Point", "coordinates": [-149.24457286366965, -56.91672601115774]}}, {"type": "Feature", "properties": {"norad_id": 38046, "name": "ZIYUAN 3-1 (ZY 3-1)", "group": "resource", "lat": 21.178063179545784, "lon": -133.24123329893823, "alt_km": 368.9744137853959, "timestamp": "2025-12-03T17:47:50.368970+00:00", "meta": {"OBJECT_NAME": "ZIYUAN 3-1 (ZY 3-1)", "OBJECT_ID": "2012-001A", "EPOCH": "2025-12-03T12:31:28.488000", "MEAN_MOTION": 15.66784662, "ECCENTRICITY": 0.000223, "INCLINATION": 97.1778, "RA_OF_ASC_NODE": 43.7357, "ARG_OF_PERICENTER": 31.2198, "MEAN_ANOMALY": 328.9195, "EPHEMERIS_TYPE": 0, "CLASSIFICATION_TYPE": "U", "NORAD_CAT_ID": 38046, "ELEMENT_SET_NO": 999, "REV_AT_EPOCH": 77352, "BSTAR": 0.00080727, "MEAN_MOTION_DOT": 0.00085596, "MEAN_MOTION_DDOT": 0}, "tle": {"line1": "1 38046U 12001A   25337.52185750  .00085596  00000+0  80727-3 0  9997", "line2": "2 38046  97.1778  43.7357 0002230  31.2198 328.9195 15.66784662773524"}}, "geometry": {"type": "Point", "coordinates": [-133.24123329893823, 21.178063179545784]}}, {"type": "Feature", "properties": {"norad_id": 38338, "name": "ARIRANG-3 (KOMPSAT-3)", "group": "resource", "lat": -0.9232517568401384, "lon": 112.12855686281533, "alt_km": 695.0426867728902, "timestamp": "2025-12-03T17:47:50.368984+00:00", "meta": {"OBJECT_NAME": "ARIRANG-3 (KOMPSAT-3)", "OBJECT_ID": "2012-025B", "EPOCH": "2025-12-03T12:02:38.662368", "MEAN_MOTION": 14.61692181, "ECCENTRICITY": 0.0006016, "INCLINATION": 98.3308, "RA_OF_ASC_NODE": 292.0224, "ARG_OF_PERICENTER": 7.8954, "MEAN_ANOMALY": 352.234, "EPHEMERIS_TYPE": 0, "CLASSIFICATION_TYPE": "U", "NORAD_CAT_ID": 38338, "ELEMENT_SET_NO": 999, "REV_AT_EPOCH": 72275, "BSTAR": 0.000197, "MEAN_MOTION_DOT": 9.33e-06, "MEAN_MOTION_DDOT": 0}, "tle": {"line1": "1 38338U 12025B   25337.50183637  .00000933  00000+0  19700-3 0  9992", "line2": "2 38338  98.3308 292.0224 0006016   7.8954 352.2340 14.61692181722756"}}, "geometry": {"type": "Point", "coordinates": [112.12855686281533, -0.9232517568401384]}}, {"type": "Feature", "properties": {"norad_id": 38709, "name": "EXACTVIEW-1 (ADS-1B)", "group": "resource", "lat": -69.63810083717601, "lon": 111.11016998744883, "alt_km": 816.2651826126121, "timestamp": "2025-12-03T17:47:50.368995+00:00", "meta": {"OBJECT_NAME": "EXACTVIEW-1 (ADS-1B)", "OBJECT_ID": "2012-039C", "EPOCH": "2025-12-03T04:39:01.818720", "MEAN_MOTION": 14.24901374, "ECCENTRICITY": 0.0011152, "INCLINATION": 98.9635, "RA_OF_ASC_NODE": 85.3837, "ARG_OF_PERICENTER": 21.4739, "MEAN_ANOMALY": 338.6905, "EPHEMERIS_TYPE": 0, "CLASSIFICATION_TYPE": "U", "NORAD_CAT_ID": 38709, "ELEMENT_SET_NO": 999, "REV_AT_EPOCH": 69479, "BSTAR": 0.00011658, "MEAN_MOTION_DOT": 2.26e-06, "MEAN_MOTION_DDOT": 0}, "tle": {"line1": "1 38709U 12039C   25337.19377105  .00000226  00000+0  11658-3 0  9998", "line2": "2 38709  98.9635  85.3837 0011152  21.4739 338.6905 14.24901374694793"}}, "geometry": {"type": "Point", "coordinates": [111.11016998744883, -69.63810083717601]}}]}